SL-12 R/B(2)            
1 17125U 86090D   26087.03446780 -.00000382  00000+0  00000+0 0  9996
2 17125  10.4672 323.2493 0007688 181.5672 178.3700  1.00298097144059
GOES 7                  
1 17561U 87022A   26086.37139314  .00000049  00000+0  00000+0 0  9993
2 17561  13.0005 338.2141 0004074  23.9266 152.2943  0.99904305126145
AGILA 1 (PALAPA B2P)    
1 17706U 87029A   26087.70573405 -.00000207  00000+0  00000+0 0  9999
2 17706  14.4033 348.7872 0003182  20.4620 163.7864  0.99902943 41729
SL-12 R/B(2)            
1 17872U 76092F   26088.13106685 -.00000152  00000+0  00000+0 0  9990
2 17872   3.6686 271.3210 0015206 193.2928 209.3956  1.00222302118129
SL-12 R/B(2)            
1 17873U 79035E   26088.12153346  .00000119  00000+0  00000+0 0  9998
2 17873   5.4216 282.8712 0025446 252.3388  86.6452  1.00156181184364
SL-12 R/B(2)            
1 17874U 84016F   26087.69810736  .00000046  00000+0  00000+0 0  9997
2 17874   8.7293 311.4090 0033923 228.4935 312.0462  1.00302852122047
COSMOS 1888             
1 18384U 87084A   26087.68628594 -.00000304  00000+0  00000+0 0  9998
2 18384  10.9104 326.5963 0001830 302.5023 261.9538  1.00162087140882
SL-12 R/B(2)            
1 18387U 87084D   26087.86503145 -.00000045  00000+0  00000+0 0  9997
2 18387  11.0631 327.1934 0028720 251.0784  96.6416  1.00060697147964
COSMOS 1894             
1 18443U 87091A   26087.96828615 -.00000204  00000+0  00000+0 0  9998
2 18443  10.8689 326.0610 0005174  18.1836 169.1247  1.00262019120011
SL-12 R/B(2)            
1 18446U 87091D   26087.50172593 -.00000299  00000+0  00000+0 0  9992
2 18446  10.9033 326.2332 0022038 266.4834 276.9063  1.00227247129190
COSMOS 1897             
1 18575U 87096A   26087.70218072 -.00000136  00000+0  00000+0 0  9995
2 18575  11.1364 327.4231 0005814 129.9803  56.5258  1.00323878140385
SL-12 R/B(2)            
1 18578U 87096D   26088.07683610 -.00000310  00000+0  00000+0 0  9997
2 18578  10.9290 326.6875 0021859 249.2153 305.5449  1.00567126137223
RADUGA 21               
1 18631U 87100A   26088.16391362 -.00000083  00000+0  00000+0 0  9990
2 18631  11.4210 325.8298 0001335 315.7347 209.7884  1.00360852140287
STTW-2                  
1 18922U 88014A   26087.77272768 -.00000094  00000+0  00000+0 0  9994
2 18922  13.3283 340.2683 0003370 178.0179  17.4639  1.00303834139304
SPACENET 3R             
1 18951U 88018A   26084.97638949 -.00000186  00000+0  00000+0 0  9998
2 18951  14.6851   0.3171 0005341 293.2246 234.4347  0.99666909123786
SL-12 R/B(2)            
1 19076U 88034D   26087.73199419  .00000059  00000+0  00000+0 0  9994
2 19076  11.3773 328.1045 0021998 189.4675 157.4615  1.00089663138294
INSAT-1C                
1 19330U 88063A   26088.13210685 -.00000214  00000+0  00000+0 0  9997
2 19330  11.4305 328.3078 0005168 122.9239 228.1142  1.00235592119537
